{
  "norad_id": 55436,
  "name": "STARLINK-5640",
  "history": [
    {
      "epoch": "2026-03-28T14:58:01.245792Z",
      "apogee_km": 574.2997985693901,
      "perigee_km": 570.1365358242401,
      "latitude_deg": -5.897364170722828e-05,
      "longitude_deg": 6.2188786636048325,
      "height_km": 574.2944380225659,
      "semi_major_axis_km": 6950.355167196815,
      "eccentricity": 0.0002995,
      "inclination_deg": 70.0004,
      "raan_deg": 56.7655,
      "arg_perigee_deg": 279.7092,
      "mean_anomaly_deg": 80.3728,
      "mean_motion_rev_day": 14.98277526
    },
    {
      "epoch": "2026-03-29T03:47:04.359840Z",
      "apogee_km": 574.0958244798203,
      "perigee_km": 570.0063338140508,
      "latitude_deg": 4.846573782075521e-06,
      "longitude_deg": 172.08302917693788,
      "height_km": 574.5131906691496,
      "semi_major_axis_km": 6950.188079146936,
      "eccentricity": 0.0002942,
      "inclination_deg": 70.0005,
      "raan_deg": 55.419,
      "arg_perigee_deg": 269.0284,
      "mean_anomaly_deg": 91.0538,
      "mean_motion_rev_day": 14.98331556
    }
  ]
}